QIANFAN-49              
1 62250U 24232P   25344.47018698  .00000140  00000+0  19763-3 0  9992
2 62250  89.0030  41.4651 0014062 193.7240 166.3531 13.50978488 67536
QIANFAN-50              
1 62251U 24232Q   25344.49485699  .00000149  00000+0  21182-3 0  9991
2 62251  89.0035  41.4706 0015667 195.8702 164.1960 13.50979960 67562
QIANFAN-51              
1 62252U 24232R   25344.47842103  .00000128  00000+0  17939-3 0  9999
2 62252  89.0029  41.4663 0013037 198.2597 161.8088 13.50978034 67551
QIANFAN-52              
1 62253U 24232S   25344.50722316  .00000136  00000+0  19212-3 0  9992
2 62253  89.0025  41.3371 0015293 191.5243 168.5560 13.50976251 67641
QIANFAN-53              
1 62254U 24232T   25344.48664073  .00000142  00000+0  20187-3 0  9995
2 62254  89.0033  41.4434 0014150 192.0897 167.9917 13.50978569 67603
QIANFAN-54              
1 62255U 24232U   25344.45374747  .00000150  00000+0  21353-3 0  9994
2 62255  89.0024  41.1255 0001460 176.8662 183.2499 13.50978779 99101
QIANFAN-55              
1 62785U 25016A   25344.47985941  .00000196  00000+0  28519-3 0  9990
2 62785  88.9778 103.4427 0016791   0.3660 359.7501 13.50986547 46881
QIANFAN-56              
1 62786U 25016B   25344.42219281  .00000180  00000+0  26002-3 0  9991
2 62786  88.9751 103.2857 0015521   3.4655 356.6601 13.50977683 46929
